STARLINK-31567          
1 59199U 24045X   26068.43135816 -.00005323  00000+0 -18394-3 0  9993
2 59199  43.0003  93.8497 0000791 244.6072 115.4698 15.27599181113127
2025-313BE              
1 67482U 25313BE  26068.69721505  .00077178  00000+0  26504-2 0  9996
2 67482  97.3989 145.3568 0007208 335.3714  24.7181 15.29801687  7972
